ONEWEB-0273             
1 48991U 21060AA  23344.72743393 -.00000624  00000+0 -16658-2 0  9995
2 48991  87.9084  51.7756 0001618 130.2697 229.8576 13.16589673119902
ONEWEB-0274             
1 48992U 21060AB  23344.82875575 -.00000018  00000+0 -79731-4 0  9995
2 48992  87.9084  51.7595 0001175  90.6667 269.4599 13.16596659119950
ONEWEB-0275             
1 48993U 21060AC  23344.74221488  .00000011  00000+0 -55477-5 0  9999
2 48993  87.9080  51.7732 0001666 107.5044 252.6269 13.16592046119866
ONEWEB-0276             
1 48994U 21060AD  23344.70000046 -.00000024  00000+0 -96107-4 0  9990
2 48994  87.9087  51.7750 0001800 116.5759 243.5557 13.16596711119881
ONEWEB-0277             
1 48995U 21060AE  23344.71265010  .00000087  00000+0  19285-3 0  9994
2 48995  87.9081  51.8113 0001448 123.8580 236.2689 13.16594884119863
ONEWEB-0278             
1 48996U 21060AF  23344.17011523  .00000079  00000+0  17243-3 0  9996
2 48996  87.9086  51.8769 0002457 107.2040 252.9360 13.16595418118633
ONEWEB-0279             
1 48997U 21060AG  23344.71053204  .00000057  00000+0  11431-3 0  9998
2 48997  87.9081  51.7666 0001611 101.6801 258.4511 13.16597165119932
ONEWEB-0280             
1 48998U 21060AH  23344.72530882  .00005780  00000+0  15084-1 0  9996
2 48998  87.9091  51.7641 0001294 111.8676 248.2593 13.16561977119868
